*******************************************************************************
Ephemeris / PORT_LOGIN Sun Nov 27 10:13:39 2011 Pasadena, USA    / Horizons    
*******************************************************************************
Target body name: Lysithea (510)                  {source: JUP282}
Center body name: Solar System Barycenter (0)     {source: DE405}
Center-site name: BODY CENTER
*******************************************************************************
Start time      : A.D. 2001-Jan-01 10:00:00.0000 CT 
Stop  time      : A.D. 2001-Jan-02 00:00:00.0000 CT 
Step-size       : 60 minutes
*******************************************************************************
Center geodetic : 0.00000000,0.00000000,0.0000000 {E-lon(deg),Lat(deg),Alt(km)}
Center cylindric: 0.00000000,0.00000000,0.0000000 {E-lon(deg),Dxy(km),Dz(km)}
Center radii    : (undefined)                                                  
Output units    : AU-D                                                         
Output format   : 03
Reference frame : ICRF/J2000.0                                                 
Output type     : GEOMETRIC cartesian states
Coordinate systm: Earth Mean Equator and Equinox of Reference Epoch            
*******************************************************************************
JDCT 
   X     Y     Z
   VX    VY    VZ
   LT    RG    RR
*******************************************************************************
$$SOE
2451910.916666667 = A.D. 2001-Jan-01 10:00:00.0000 (CT)
   1.706820608437527E+00  4.335969716589176E+00  1.815121764528227E+00
  -7.146272446006539E-03  1.593073461152431E-03 -3.039455754400394E-05
   2.888252179034076E-02  5.000853626395151E+00 -1.068828848579730E-03
2451910.958333333 = A.D. 2001-Jan-01 11:00:00.0000 (CT)
   1.706522878806632E+00  4.336036090158260E+00  1.815120496196790E+00
  -7.144749921718846E-03  1.592858002746490E-03 -3.048516087935599E-05
   2.888226466897350E-02  5.000809107210460E+00 -1.068091891569999E-03
2451911.000000000 = A.D. 2001-Jan-01 12:00:00.0000 (CT)
   1.706225212603646E+00  4.336102454768395E+00  1.815119224114030E+00
  -7.143227906536072E-03  1.592643431609645E-03 -3.057462114448770E-05
   2.888200772504266E-02  5.000764618747935E+00 -1.067354184744298E-03
2451911.041666667 = A.D. 2001-Jan-01 13:00:00.0000 (CT)
   1.705927609807338E+00  4.336168810456540E+00  1.815117948327559E+00
  -7.141706401333534E-03  1.592429747039562E-03 -3.066293911635631E-05
   2.888175095872859E-02  5.000720161038799E+00 -1.066615729052735E-03
2451911.083333333 = A.D. 2001-Jan-01 14:00:00.0000 (CT)
   1.705630070396440E+00  4.336235157259619E+00  1.815116668884958E+00
  -7.140185406984699E-03  1.592216948334151E-03 -3.075011557173231E-05
   2.888149437021137E-02  5.000675734114234E+00 -1.065876525444473E-03
2451911.125000000 = A.D. 2001-Jan-01 15:00:00.0000 (CT)
   1.705332594349648E+00  4.336301495214528E+00  1.815115385833772E+00
  -7.138664924361224E-03  1.592005034791562E-03 -3.083615128719718E-05
   2.888123795967089E-02  5.000631338005386E+00 -1.065136574867741E-03
2451911.166666667 = A.D. 2001-Jan-01 16:00:00.0000 (CT)
   1.705035181645624E+00  4.336367824358136E+00  1.815114099221516E+00
  -7.137144954332974E-03  1.591794005710186E-03 -3.092104703914363E-05
   2.888098172728678E-02  5.000586972743357E+00 -1.064395878269844E-03
2451911.208333333 = A.D. 2001-Jan-01 17:00:00.0000 (CT)
   1.704737832262989E+00  4.336434144727279E+00  1.815112809095674E+00
  -7.135625497768043E-03  1.591583860388655E-03 -3.100480360377431E-05
   2.888072567323845E-02  5.000542638359212E+00 -1.063654436597171E-03
2451911.250000000 = A.D. 2001-Jan-01 18:00:00.0000 (CT)
   1.704440546180333E+00  4.336500456358766E+00  1.815111515503694E+00
  -7.134106555532784E-03  1.591374598125837E-03 -3.108742175710130E-05
   2.888046979770509E-02  5.000498334883975E+00 -1.062912250795202E-03
2451911.291666667 = A.D. 2001-Jan-01 19:00:00.0000 (CT)
   1.704143323376206E+00  4.336566759289377E+00  1.815110218492995E+00
  -7.132588128491831E-03  1.591166218220843E-03 -3.116890227494457E-05
   2.888021410086566E-02  5.000454062348634E+00 -1.062169321808521E-03
2451911.333333333 = A.D. 2001-Jan-01 20:00:00.0000 (CT)
   1.703846163829124E+00  4.336633053555863E+00  1.815108918110961E+00
  -7.131070217508126E-03  1.590958719973024E-03 -3.124924593292868E-05
   2.887995858289890E-02  5.000409820784134E+00 -1.061425650580816E-03
2451911.375000000 = A.D. 2001-Jan-01 21:00:00.0000 (CT)
   1.703549067517568E+00  4.336699339194944E+00  1.815107614404946E+00
  -7.129552823442943E-03  1.590752102681974E-03 -3.132845350648400E-05
   2.887970324398329E-02  5.000365610221381E+00 -1.060681238054895E-03
2451911.416666667 = A.D. 2001-Jan-01 22:00:00.0000 (CT)
   1.703252034419979E+00  4.336765616243312E+00  1.815106307422270E+00
  -7.128035947155923E-03  1.590546365647531E-03 -3.140652577084060E-05
   2.887944808429713E-02  5.000321430691246E+00 -1.059936085172687E-03
2451911.458333333 = A.D. 2001-Jan-01 23:00:00.0000 (CT)
   1.702955064514768E+00  4.336831884737631E+00  1.815104997210223E+00
  -7.126519589505082E-03  1.590341508169780E-03 -3.148346350102900E-05
   2.887919310401846E-02  5.000277282224554E+00 -1.059190192875250E-03
2451911.500000000 = A.D. 2001-Jan-02 00:00:00.0000 (CT)
   1.702658157780305E+00  4.336898144714532E+00  1.815103683816059E+00
  -7.125003751346865E-03  1.590137529549054E-03 -3.155926747187710E-05
   2.887893830332511E-02  5.000233164852096E+00 -1.058443562102782E-03
$$EOE
*******************************************************************************
Coordinate system description:

  Earth Mean Equator and Equinox of Reference Epoch

    Reference epoch: J2000.0
    xy-plane: plane of the Earth's mean equator at the reference epoch
    x-axis  : out along ascending node of instantaneous plane of the Earth's
              orbit and the Earth's mean equator at the reference epoch
    z-axis  : along the Earth mean north pole at the reference epoch

Symbol meaning [1 AU=149597870.691 km, 1 day=86400.0 s]:

    JDCT     Epoch Julian Date, Coordinate Time
      X      x-component of position vector (AU)                               
      Y      y-component of position vector (AU)                               
      Z      z-component of position vector (AU)                               
      VX     x-component of velocity vector (AU/day)                           
      VY     y-component of velocity vector (AU/day)                           
      VZ     z-component of velocity vector (AU/day)                           
      LT     One-way down-leg Newtonian light-time (day)                       
      RG     Range; distance from coordinate center (AU)                       
      RR     Range-rate; radial velocity wrt coord. center (AU/day)            

Geometric states/elements have no aberration corrections applied.

 Computations by ...
     Solar System Dynamics Group, Horizons On-Line Ephemeris System
     4800 Oak Grove Drive, Jet Propulsion Laboratory
     Pasadena, CA  91109   USA
     Information: http://ssd.jpl.nasa.gov/
     Connect    : telnet://ssd.jpl.nasa.gov:6775  (via browser)
                  telnet ssd.jpl.nasa.gov 6775    (via command-line)
     Author     : Jon.Giorgini@jpl.nasa.gov
*******************************************************************************
